{
  "type": "FeatureCollection",
  "features": [
    {
      "type": "Feature",
      "properties": {
        "norad_id": 66844,
        "name": "STARLINK-36073",
        "group": "last-30-days",
        "lat": -8.491005925551756,
        "lon": -168.81059025202583,
        "alt_km": 343.9895648623533,
        "timestamp": "2025-12-14T07:33:18.188692+00:00",
        "meta_object_name": "STARLINK-36073",
        "meta_object_id": "2025-280Z",
        "meta_epoch": "2025-12-13T16:21:57.390336",
        "meta_mean_motion": 15.77045972,
        "meta_eccentricity": 0.00049689,
        "meta_inclination": 69.9915,
        "meta_ra_of_asc_node": 196.1047,
        "meta_arg_of_pericenter": 278.2455,
        "meta_mean_anomaly": 81.818,
        "meta_ephemeris_type": 0,
        "meta_classification_type": "U",
        "meta_norad_cat_id": 66844,
        "meta_element_set_no": 999,
        "meta_rev_at_epoch": 304,
        "meta_bstar": -0.0044479124,
        "meta_mean_motion_dot": -0.00672062,
        "meta_mean_motion_ddot": 0,
        "tle_line1": "1 66844U 25280Z   25347.68191424 -.00672062  00000+0 -44479-2 0  9995",
        "tle_line2": "2 66844  69.9915 196.1047 0004968 278.2455  81.8180 15.77045972  3047"
      },
      "geometry": {
        "type": "Point",
        "coordinates": [
          -168.81059025202583,
          -8.491005925551756
        ]
      }
    },
    {
      "type": "Feature",
      "properties": {
        "norad_id": 66845,
        "name": "STARLINK-36068",
        "group": "last-30-days",
        "lat": -1.3305956998933497,
        "lon": -166.18596032774386,
        "alt_km": 341.61580767444866,
        "timestamp": "2025-12-14T07:33:18.188703+00:00",
        "meta_object_name": "STARLINK-36068",
        "meta_object_id": "2025-280AA",
        "meta_epoch": "2025-12-13T16:19:58.739808",
        "meta_mean_motion": 15.77001152,
        "meta_eccentricity": 0.00086645,
        "meta_inclination": 69.9919,
        "meta_ra_of_asc_node": 196.0994,
        "meta_arg_of_pericenter": 297.0346,
        "meta_mean_anomaly": 62.9968,
        "meta_ephemeris_type": 0,
        "meta_classification_type": "U",
        "meta_norad_cat_id": 66845,
        "meta_element_set_no": 999,
        "meta_rev_at_epoch": 307,
        "meta_bstar": -0.0047274236,
        "meta_mean_motion_dot": -0.00711519,
        "meta_mean_motion_ddot": 0,
        "tle_line1": "1 66845U 25280AA  25347.68054097 -.00711519  00000+0 -47274-2 0  9997",
        "tle_line2": "2 66845  69.9919 196.0994 0008664 297.0346  62.9968 15.77001152  3076"
      },
      "geometry": {
        "type": "Point",
        "coordinates": [
          -166.18596032774386,
          -1.3305956998933497
        ]
      }
    },
    {
      "type": "Feature",
      "properties": {
        "norad_id": 66846,
        "name": "STARLINK-36055",
        "group": "last-30-days",
        "lat": 6.849163710062527,
        "lon": -163.20255337087914,
        "alt_km": 332.2316020476046,
        "timestamp": "2025-12-14T07:33:18.188715+00:00",
        "meta_object_name": "STARLINK-36055",
        "meta_object_id": "2025-280AB",
        "meta_epoch": "2025-12-13T14:48:59.072832",
        "meta_mean_motion": 15.79711793,
        "meta_eccentricity": 0.00147515,
        "meta_inclination": 69.9914,
        "meta_ra_of_asc_node": 196.2805,
        "meta_arg_of_pericenter": 251.4833,
        "meta_mean_anomaly": 108.4765,
        "meta_ephemeris_type": 0,
        "meta_classification_type": "U",
        "meta_norad_cat_id": 66846,
        "meta_element_set_no": 999,
        "meta_rev_at_epoch": 306,
        "meta_bstar": 0.0065323439,
        "meta_mean_motion_dot": 0.01348213,
        "meta_mean_motion_ddot": 0,
        "tle_line1": "1 66846U 25280AB  25347.61735038  .01348213  00000+0  65323-2 0  9993",
        "tle_line2": "2 66846  69.9914 196.2805 0014751 251.4833 108.4765 15.79711793  3065"
      },
      "geometry": {
        "type": "Point",
        "coordinates": [
          -163.20255337087914,
          6.849163710062527
        ]
      }
    },
    {
      "type": "Feature",
      "properties": {
        "norad_id": 66847,
        "name": "STARLINK-36061",
        "group": "last-30-days",
        "lat": 6.964710577690469,
        "lon": -163.15970518492682,
        "alt_km": 333.9178474003902,
        "timestamp": "2025-12-14T07:33:18.188727+00:00",
        "meta_object_name": "STARLINK-36061",
        "meta_object_id": "2025-280AC",
        "meta_epoch": "2025-12-13T14:48:32.381280",
        "meta_mean_motion": 15.79472264,
        "meta_eccentricity": 0.00115549,
        "meta_inclination": 69.9916,
        "meta_ra_of_asc_node": 196.2796,
        "meta_arg_of_pericenter": 255.5008,
        "meta_mean_anomaly": 104.4911,
        "meta_ephemeris_type": 0,
        "meta_classification_type": "U",
        "meta_norad_cat_id": 66847,
        "meta_element_set_no": 999,
        "meta_rev_at_epoch": 306,
        "meta_bstar": 0.0035100893,
        "meta_mean_motion_dot": 0.00692647,
        "meta_mean_motion_ddot": 0,
        "tle_line1": "1 66847U 25280AC  25347.61704145  .00692647  00000+0  35101-2 0  9992",
        "tle_line2": "2 66847  69.9916 196.2796 0011554 255.5008 104.4911 15.79472264  3060"
      },
      "geometry": {
        "type": "Point",
        "coordinates": [
          -163.15970518492682,
          6.964710577690469
        ]
      }
    },
    {
      "type": "Feature",
      "properties": {
        "norad_id": 66848,
        "name": "STARLINK-36091",
        "group": "last-30-days",
        "lat": 5.076987641371978,
        "lon": -72.83435278691483,
        "alt_km": 305.6843855633797,
        "timestamp": "2025-12-14T07:33:18.188738+00:00",
        "meta_object_name": "STARLINK-36091",
        "meta_object_id": "2025-281A",
        "meta_epoch": "2025-12-13T15:44:50.767296",
        "meta_mean_motion": 15.89072384,
        "meta_eccentricity": 0.00026849,
        "meta_inclination": 43.0006,
        "meta_ra_of_asc_node": 116.7167,
        "meta_arg_of_pericenter": 304.205,
        "meta_mean_anomaly": 55.857,
        "meta_ephemeris_type": 0,
        "meta_classification_type": "U",
        "meta_norad_cat_id": 66848,
        "meta_element_set_no": 999,
        "meta_rev_at_epoch": 294,
        "meta_bstar": -0.00036275773,
        "meta_mean_motion_dot": -0.00106963,
        "meta_mean_motion_ddot": 0,
        "tle_line1": "1 66848U 25281A   25347.65614314 -.00106963  00000+0 -36276-3 0  9994",
        "tle_line2": "2 66848  43.0006 116.7167 0002684 304.2050  55.8570 15.89072384  2942"
      },
      "geometry": {
        "type": "Point",
        "coordinates": [
          -72.83435278691483,
          5.076987641371978
        ]
      }
    },
    {
      "type": "Feature",
      "properties": {
        "norad_id": 66849,
        "name": "STARLINK-36102",
        "group": "last-30-days",
        "lat": 3.545820536949632,
        "lon": -71.18306860525573,
        "alt_km": 304.84430485034045,
        "timestamp": "2025-12-14T07:33:18.188748+00:00",
        "meta_object_name": "STARLINK-36102",
        "meta_object_id": "2025-281B",
        "meta_epoch": "2025-12-13T15:44:15.361440",
        "meta_mean_motion": 15.89100625,
        "meta_eccentricity": 0.00018621,
        "meta_inclination": 43.0005,
        "meta_ra_of_asc_node": 116.7122,
        "meta_arg_of_pericenter": 258.6072,
        "meta_mean_anomaly": 101.4593,
        "meta_ephemeris_type": 0,
        "meta_classification_type": "U",
        "meta_norad_cat_id": 66849,
        "meta_element_set_no": 999,
        "meta_rev_at_epoch": 294,
        "meta_bstar": -0.00071984498,
        "meta_mean_motion_dot": -0.00209524,
        "meta_mean_motion_ddot": 0,
        "tle_line1": "1 66849U 25281B   25347.65573335 -.00209524  00000+0 -71984-3 0  9994",
        "tle_line2": "2 66849  43.0005 116.7122 0001862 258.6072 101.4593 15.89100625  2949"
      },
      "geometry": {
        "type": "Point",
        "coordinates": [
          -71.18306860525573,
          3.545820536949632
        ]
      }
    },
    {
      "type": "Feature",
      "properties": {
        "norad_id": 66850,
        "name": "STARLINK-36105",
        "group": "last-30-days",
        "lat": -1.538419717124602,
        "lon": -65.73717277084259,
        "alt_km": 299.40537946962104,
        "timestamp": "2025-12-14T07:33:18.188758+00:00",
        "meta_object_name": "STARLINK-36105",
        "meta_object_id": "2025-281C",
        "meta_epoch": "2025-12-13T08:10:57.457920",
        "meta_mean_motion": 15.89821555,
        "meta_eccentricity": 0.00037044,
        "meta_inclination": 43.0001,
        "meta_ra_of_asc_node": 118.6551,
        "meta_arg_of_pericenter": 242.7063,
        "meta_mean_anomaly": 117.3434,
        "meta_ephemeris_type": 0,
        "meta_classification_type": "U",
        "meta_norad_cat_id": 66850,
        "meta_element_set_no": 999,
        "meta_rev_at_epoch": 289,
        "meta_bstar": 0.0014498555,
        "meta_mean_motion_dot": 0.00470482,
        "meta_mean_motion_ddot": 0,
        "tle_line1": "1 66850U 25281C   25347.34094280  .00470482  00000+0  14499-2 0  9997",
        "tle_line2": "2 66850  43.0001 118.6551 0003704 242.7063 117.3434 15.89821555  2891"
      },
      "geometry": {
        "type": "Point",
        "coordinates": [
          -65.73717277084259,
          -1.538419717124602
        ]
      }
    }
  ]
}